AJISAI (EGS)            
1 16908U 86061A   17345.93181580 -.00000099  00000-0 -12667-4 0  9996
2 16908  50.0111 348.0068 0011369 186.4796 254.6896 12.44486737 93361
